start=new Date('2022-06-14T00:00:00.000Z').valueOf();
sats=[{"OBJECT_TYPE":"PAYLOAD","TLE_LINE2":"2 50805  53.2167 166.3037 0002559  49.2632 310.8582 15.08844145 25764","ELEMENT_SET_NO":"999","COUNTRY_CODE":"US","SITE":"AFETR","EPHEMERIS_TYPE":"0","DECAY_DATE":null,"REF_FRAME":"TEME","LAUNCH_DATE":"2022-01-06","PERIOD":"95.437","TIME_SYSTEM":"UTC","MEAN_MOTION_DOT":"0.00001491","FILE":"3494757","NORAD_CAT_ID":"50805","SEMIMAJOR_AXIS":"6917.868","OBJECT_ID":"2022-001C","INCLINATION":"53.2167","MEAN_MOTION_DDOT":"0.0000000000000","CENTER_NAME":"EARTH","MEAN_MOTION":"15.08844145","MEAN_ELEMENT_THEORY":"SGP4","GP_ID":"206064863","BSTAR":"0.00011179000000","ARG_OF_PERICENTER":"49.2632","REV_AT_EPOCH":"2576","PERIAPSIS":"537.962","MEAN_ANOMALY":"310.8582","CLASSIFICATION_TYPE":"U","ECCENTRICITY":"0.00025590","APOAPSIS":"541.503","OBJECT_NAME":"STARLINK-3333","EPOCH":"2022-06-13T19:24:20.591424","RCS_SIZE":"LARGE","TLE_LINE1":"1 50805U 22001C   22164.80857166  .00001491  00000-0  11179-3 0  9996","RA_OF_ASC_NODE":"166.3037"},{"CLASSIFICATION_TYPE":"U","ECCENTRICITY":"0.00024150","MEAN_ANOMALY":"312.1145","PERIAPSIS":"538.074","EPOCH":"2022-06-13T06:35:56.386752","RCS_SIZE":"LARGE","TLE_LINE1":"1 50806U 22001D   22164.27495818  .00001276  00000-0  98299-4 0  9990","RA_OF_ASC_NODE":"168.7027","APOAPSIS":"541.415","OBJECT_NAME":"STARLINK-3335","MEAN_ELEMENT_THEORY":"SGP4","GP_ID":"206060365","BSTAR":"0.00009829900000","CENTER_NAME":"EARTH","MEAN_MOTION":"15.08840187","REV_AT_EPOCH":"2441","ARG_OF_PERICENTER":"48.0052","PERIOD":"95.438","TIME_SYSTEM":"UTC","MEAN_MOTION_DOT":"0.00001276","LAUNCH_DATE":"2022-01-06","INCLINATION":"53.2150","OBJECT_ID":"2022-001D","MEAN_MOTION_DDOT":"0.0000000000000","NORAD_CAT_ID":"50806","FILE":"3494620","SEMIMAJOR_AXIS":"6917.880","COUNTRY_CODE":"US","TLE_LINE2":"2 50806  53.2150 168.7027 0002415  48.0052 312.1145 15.08840187 24419","OBJECT_TYPE":"PAYLOAD","ELEMENT_SET_NO":"999","DECAY_DATE":null,"REF_FRAME":"TEME","SITE":"AFETR","EPHEMERIS_TYPE":"0"},{"MEAN_MOTION_DOT":"0.00001183","TIME_SYSTEM":"UTC","PERIOD":"95.438","LAUNCH_DATE":"2022-01-06","MEAN_MOTION_DDOT":"0.0000000000000","INCLINATION":"53.2183","OBJECT_ID":"2022-001E","SEMIMAJOR_AXIS":"6917.908","NORAD_CAT_ID":"50807","FILE":"3494784","COUNTRY_CODE":"US","ELEMENT_SET_NO":"999","TLE_LINE2":"2 50807  53.2183 166.6968 0002705  45.1095 315.0117 15.08830906 25751","OBJECT_TYPE":"PAYLOAD","REF_FRAME":"TEME","DECAY_DATE":null,"EPHEMERIS_TYPE":"0","SITE":"AFETR","ECCENTRICITY":"0.00027050","CLASSIFICATION_TYPE":"U","MEAN_ANOMALY":"315.0117","PERIAPSIS":"537.902","RA_OF_ASC_NODE":"166.6968","TLE_LINE1":"1 50807U 22001E   22164.72393601  .00001183  00000-0  92428-4 0  9993","RCS_SIZE":"LARGE","EPOCH":"2022-06-13T17:22:28.071264","OBJECT_NAME":"STARLINK-3353","APOAPSIS":"541.644","BSTAR":"0.00009242800000","MEAN_ELEMENT_THEORY":"SGP4","GP_ID":"206065189","MEAN_MOTION":"15.08830906","CENTER_NAME":"EARTH","REV_AT_EPOCH":"2575","ARG_OF_PERICENTER":"45.1095"},{"ELEMENT_SET_NO":"999","TLE_LINE2":"2 50808  53.2164 166.6569 0002836  46.4303 313.6925 15.08836556 25735","OBJECT_TYPE":"PAYLOAD","COUNTRY_CODE":"US","EPHEMERIS_TYPE":"0","SITE":"AFETR","DECAY_DATE":null,"REF_FRAME":"TEME","LAUNCH_DATE":"2022-01-06","PERIOD":"95.438","MEAN_MOTION_DOT":"-0.00000744","TIME_SYSTEM":"UTC","SEMIMAJOR_AXIS":"6917.891","FILE":"3494786","NORAD_CAT_ID":"50808","MEAN_MOTION_DDOT":"0.0000000000000","INCLINATION":"53.2164","OBJECT_ID":"2022-001F","CENTER_NAME":"EARTH","MEAN_MOTION":"15.08836556","MEAN_ELEMENT_THEORY":"SGP4","GP_ID":"206065213","BSTAR":"-0.00002859700000","REV_AT_EPOCH":"2573","ARG_OF_PERICENTER":"46.4303","MEAN_ANOMALY":"313.6925","PERIAPSIS":"537.794","CLASSIFICATION_TYPE":"U","ECCENTRICITY":"0.00028360","APOAPSIS":"541.718","OBJECT_NAME":"STARLINK-3355","TLE_LINE1":"1 50808U 22001F   22164.73128138 -.00000744  00000-0 -28597-4 0  9996","RCS_SIZE":"LARGE","EPOCH":"2022-06-13T17:33:02.711232","RA_OF_ASC_NODE":"166.6569"},{"EPHEMERIS_TYPE":"0","SITE":"AFETR","REF_FRAME":"TEME","DECAY_DATE":null,"ELEMENT_SET_NO":"999","TLE_LINE2":"2 50809  53.2161 166.6406 0002461  44.5758 315.5432 15.08838900 25762","OBJECT_TYPE":"PAYLOAD","COUNTRY_CODE":"US","SEMIMAJOR_AXIS":"6917.884","FILE":"3494786","NORAD_CAT_ID":"50809","MEAN_MOTION_DDOT":"0.0000000000000","OBJECT_ID":"2022-001G","INCLINATION":"53.2161","LAUNCH_DATE":"2022-01-06","MEAN_MOTION_DOT":"0.00001252","TIME_SYSTEM":"UTC","PERIOD":"95.438","ARG_OF_PERICENTER":"44.5758","REV_AT_EPOCH":"2576","MEAN_MOTION":"15.08838900","CENTER_NAME":"EARTH","BSTAR":"0.00009675000000","MEAN_ELEMENT_THEORY":"SGP4","GP_ID":"206065218","OBJECT_NAME":"STARLINK-3232","APOAPSIS":"541.451","RA_OF_ASC_NODE":"166.6406","TLE_LINE1":"1 50809U 22001G   22164.73497941  .00001252  00000-0  96750-4 0  9997","RCS_SIZE":"LARGE","EPOCH":"2022-06-13T17:38:22.221024","PERIAPSIS":"538.046","MEAN_ANOMALY":"315.5432","ECCENTRICITY":"0.00024610","CLASSIFICATION_TYPE":"U"},{"ARG_OF_PERICENTER":"41.5296","REV_AT_EPOCH":"2573","MEAN_MOTION":"15.08830044","CENTER_NAME":"EARTH","BSTAR":"0.00008537300000","GP_ID":"206067376","MEAN_ELEMENT_THEORY":"SGP4","OBJECT_NAME":"STARLINK-3348","APOAPSIS":"541.487","RA_OF_ASC_NODE":"166.6826","EPOCH":"2022-06-13T17:27:45.972288","TLE_LINE1":"1 50810U 22001H   22164.72761542  .00001070  00000-0  85373-4 0  9996","RCS_SIZE":"LARGE","PERIAPSIS":"538.064","MEAN_ANOMALY":"318.5884","ECCENTRICITY":"0.00024740","CLASSIFICATION_TYPE":"U","SITE":"AFETR","EPHEMERIS_TYPE":"0","REF_FRAME":"TEME","DECAY_DATE":null,"TLE_LINE2":"2 50810  53.2185 166.6826 0002474  41.5296 318.5884 15.08830044 25736","OBJECT_TYPE":"PAYLOAD","ELEMENT_SET_NO":"999","COUNTRY_CODE":"US","NORAD_CAT_ID":"50810","FILE":"3494890","SEMIMAJOR_AXIS":"6917.911","INCLINATION":"53.2185","OBJECT_ID":"2022-001H","MEAN_MOTION_DDOT":"0.0000000000000","LAUNCH_DATE":"2022-01-06","TIME_SYSTEM":"UTC","MEAN_MOTION_DOT":"0.00001070","PERIOD":"95.438"},{"PERIOD":"95.438","MEAN_MOTION_DOT":"0.00000742","TIME_SYSTEM":"UTC","LAUNCH_DATE":"2022-01-06","MEAN_MOTION_DDOT":"0.0000000000000","OBJECT_ID":"2022-001J","INCLINATION":"53.2200","SEMIMAJOR_AXIS":"6917.896","NORAD_CAT_ID":"50811","FILE":"3494793","COUNTRY_CODE":"US","ELEMENT_SET_NO":"999","OBJECT_TYPE":"PAYLOAD","TLE_LINE2":"2 50811  53.2200 166.7089 0002833  43.3220 316.7994 15.08834861 25769","DECAY_DATE":null,"REF_FRAME":"TEME","EPHEMERIS_TYPE":"0","SITE":"AFETR","CLASSIFICATION_TYPE":"U","ECCENTRICITY":"0.00028330","MEAN_ANOMALY":"316.7994","PERIAPSIS":"537.801","TLE_LINE1":"1 50811U 22001J   22164.72024969  .00000742  00000-0  64752-4 0  9995","RCS_SIZE":"LARGE","EPOCH":"2022-06-13T17:17:09.573216","RA_OF_ASC_NODE":"166.7089","APOAPSIS":"541.721","OBJECT_NAME":"STARLINK-3347","MEAN_ELEMENT_THEORY":"SGP4","GP_ID":"206065338","BSTAR":"0.00006475200000","CENTER_NAME":"EARTH","MEAN_MOTION":"15.08834861","ARG_OF_PERICENTER":"43.3220","REV_AT_EPOCH":"2576"},{"TIME_SYSTEM":"UTC","MEAN_MOTION_DOT":"-0.00001005","PERIOD":"95.438","LAUNCH_DATE":"2022-01-06","OBJECT_ID":"2022-001K","INCLINATION":"53.2151","MEAN_MOTION_DDOT":"0.0000000000000","NORAD_CAT_ID":"50812","FILE":"3494620","SEMIMAJOR_AXIS":"6917.899","COUNTRY_CODE":"US","TLE_LINE2":"2 50812  53.2151 168.0511 0002378  42.3134 317.8041 15.08833873 24437","OBJECT_TYPE":"PAYLOAD","ELEMENT_SET_NO":"999","REF_FRAME":"TEME","DECAY_DATE":null,"SITE":"AFETR","EPHEMERIS_TYPE":"0","ECCENTRICITY":"0.00023780","CLASSIFICATION_TYPE":"U","MEAN_ANOMALY":"317.8041","PERIAPSIS":"538.119","RA_OF_ASC_NODE":"168.0511","EPOCH":"2022-06-13T10:03:59.275584","TLE_LINE1":"1 50812U 22001K   22164.41943606 -.00001005  00000-0 -45026-4 0  9998","RCS_SIZE":"LARGE","OBJECT_NAME":"STARLINK-3338","APOAPSIS":"541.409","BSTAR":"-0.00004502600000","GP_ID":"206061867","MEAN_ELEMENT_THEORY":"SGP4","MEAN_MOTION":"15.08833873","CENTER_NAME":"EARTH","REV_AT_EPOCH":"2443","ARG_OF_PERICENTER":"42.3134"},{"PERIAPSIS":"537.711","MEAN_ANOMALY":"319.3905","ECCENTRICITY":"0.00029300","CLASSIFICATION_TYPE":"U","OBJECT_NAME":"STARLINK-3349","APOAPSIS":"541.765","RA_OF_ASC_NODE":"168.2078","TLE_LINE1":"1 50813U 22001L   22164.38632395  .00001219  00000-0  94707-4 0  9990","RCS_SIZE":"LARGE","EPOCH":"2022-06-13T09:16:18.389280","MEAN_MOTION":"15.08842323","CENTER_NAME":"EARTH","BSTAR":"0.00009470700000","GP_ID":"206061618","MEAN_ELEMENT_THEORY":"SGP4","ARG_OF_PERICENTER":"40.7306","REV_AT_EPOCH":"2443","LAUNCH_DATE":"2022-01-06","MEAN_MOTION_DOT":"0.00001219","TIME_SYSTEM":"UTC","PERIOD":"95.437","SEMIMAJOR_AXIS":"6917.873","FILE":"3494620","NORAD_CAT_ID":"50813","MEAN_MOTION_DDOT":"0.0000000000000","OBJECT_ID":"2022-001L","INCLINATION":"53.2203","ELEMENT_SET_NO":"999","TLE_LINE2":"2 50813  53.2203 168.2078 0002930  40.7306 319.3905 15.08842323 24439","OBJECT_TYPE":"PAYLOAD","COUNTRY_CODE":"US","EPHEMERIS_TYPE":"0","SITE":"AFETR","REF_FRAME":"TEME","DECAY_DATE":null},{"FILE":"3494620","NORAD_CAT_ID":"50814","SEMIMAJOR_AXIS":"6917.884","INCLINATION":"53.2177","OBJECT_ID":"2022-001M","MEAN_MOTION_DDOT":"0.0000000000000","LAUNCH_DATE":"2022-01-06","PERIOD":"95.438","TIME_SYSTEM":"UTC","MEAN_MOTION_DOT":"0.00000851","SITE":"AFETR","EPHEMERIS_TYPE":"0","DECAY_DATE":null,"REF_FRAME":"TEME","OBJECT_TYPE":"PAYLOAD","TLE_LINE2":"2 50814  53.2177 177.9843 0001972  47.2580 312.8578 15.08838861 24300","ELEMENT_SET_NO":"999","COUNTRY_CODE":"US","APOAPSIS":"541.113","OBJECT_NAME":"STARLINK-3324","EPOCH":"2022-06-13T10:22:30.258624","RCS_SIZE":"LARGE","TLE_LINE1":"1 50814U 22001M   22164.43229466  .00000851  00000-0  71569-4 0  9990","RA_OF_ASC_NODE":"177.9843","PERIAPSIS":"538.385","MEAN_ANOMALY":"312.8578","CLASSIFICATION_TYPE":"U","ECCENTRICITY":"0.00019720","REV_AT_EPOCH":"2430","ARG_OF_PERICENTER":"47.2580","CENTER_NAME":"EARTH","MEAN_MOTION":"15.08838861","MEAN_ELEMENT_THEORY":"SGP4","GP_ID":"206060366","BSTAR":"0.00007156900000"}];
